[{"OBJECT_NAME":"STARLINK-35644","OBJECT_ID":"2025-257Y","EPOCH":"2026-03-09T15:21:41.019840","MEAN_MOTION":15.3019286,"ECCENTRICITY":9.9e-5,"INCLINATION":53.1577,"RA_OF_ASC_NODE":217.407,"ARG_OF_PERICENTER":86.7928,"MEAN_ANOMALY":273.3186,"EPHEMERIS_TYPE":0,"CLASSIFICATION_TYPE":"U","NORAD_CAT_ID":66402,"ELEMENT_SET_NO":999,"REV_AT_EPOCH":1971,"BSTAR":0.00039372,"MEAN_MOTION_DOT":0.00011317,"MEAN_MOTION_DDOT":0},{"OBJECT_NAME":"DMSP 5D-2 F13 DEB","OBJECT_ID":"1995-015HL","EPOCH":"2026-02-09T02:06:19.247328","MEAN_MOTION":15.12822218,"ECCENTRICITY":0.00117732,"INCLINATION":98.8603,"RA_OF_ASC_NODE":96.8879,"ARG_OF_PERICENTER":223.037,"MEAN_ANOMALY":136.9936,"EPHEMERIS_TYPE":0,"CLASSIFICATION_TYPE":"U","NORAD_CAT_ID":42294,"ELEMENT_SET_NO":999,"REV_AT_EPOCH":55633,"BSTAR":0.010466292,"MEAN_MOTION_DOT":0.00188804,"MEAN_MOTION_DDOT":0}]
